#aP2005  3 31  0  0  0.00000000      96 ORBIT IGb00 HLM  IGS
## 1316 345600.00000000   900.00000000 53460 0.0000000000000
+   29     1  2  3  4  5  6  7  8  9 10 11 13 14 15 16 18 19
+         20 21 22 23 24 25 26 27 28 29 30 31  0  0  0  0  0
+          0  0  0  0  0  0  0  0  0  0  0  0  0  0  0  0  0
+          0  0  0  0  0  0  0  0  0  0  0  0  0  0  0  0  0
+          0  0  0  0  0  0  0  0  0  0  0  0  0  0  0  0  0
++         3  4  3  3  3  3  3  3  3  3  3  4  3  3  3  3  4
++         3  4  3  3  3  3  3  3  3  3  3  3  0  0  0  0  0
++         0  0  0  0  0  0  0  0  0  0  0  0  0  0  0  0  0
++         0  0  0  0  0  0  0  0  0  0  0  0  0  0  0  0  0
++         0  0  0  0  0  0  0  0  0  0  0  0  0  0  0  0  0
%c cc cc ccc ccc cccc cccc cccc cccc ccccc ccccc ccccc ccccc
%c cc cc ccc ccc cccc cccc cccc cccc ccccc ccccc ccccc ccccc
%f  0.0000000  0.000000000  0.00000000000  0.000000000000000
%f  0.0000000  0.000000000  0.00000000000  0.000000000000000
%i    0    0    0    0      0      0      0      0         0
%i    0    0    0    0      0      0      0      0         0
/* FINAL ORBIT COMBINATION FROM WEIGHTED AVERAGE OF:        
/* cod emr esa gfz jpl mit ngs sio                          
/* REFERENCED TO IGS TIME AND TO WEIGHTED MEAN POLE:        
/* CLK ANT Z-OFFSET (M): II/IIA 1.023; IIR 0.000            
*  2005  3 31  0  0  0.00000000
P  1 -21198.493627 -15863.379993   2440.778357    396.348669
P  2  13724.983583  11647.067371 -19866.280417    -26.561225
P  3 -24551.119930 -10114.820530   2735.705379     96.219525
P  4   6474.796133  23241.078671 -10720.205387    310.912652
P  5  23139.117526 -12507.506358   2779.757980     88.119142
P  6   9139.316947 -12800.894461 -21210.672568    290.925774
P  7  10927.972524  18951.115091  15583.324552   -130.204062
P  8   -553.500140  26294.653472   1631.244126    -24.955709
P  9  14042.840144  -9311.385768  19962.246610    -36.355652
P 10  20304.675924   2476.805706 -17173.287877     61.162769
P 11 -14608.485446  10172.593476  19631.749287    209.449511
P 13  -6858.652557  12989.021866 -22194.120061     -7.287858
P 14 -11244.440315 -18804.426496  15081.527231    -30.819742
P 15  -2900.516939 -24985.847453   7813.465838    410.106345
P 16 -16468.851976  -6719.336451 -19660.149495      1.788076
P 18  11501.200796 -17848.628079  15852.709444   -140.891875
P 19 -22797.810118  -4892.295817  12800.402632    -17.314043
P 20 -22980.678870  13277.942683   -768.233111    -75.758239
P 21   6147.489340 -24852.838670  -6092.061585     96.149987
P 22    465.049028 -16484.046428  20980.166094     19.147026
P 23 -16851.810179   5827.038974 -19816.220554    206.342918
P 24  -4274.962562  25953.524585   3243.091649      5.445761
P 25  -9712.954263 -21555.344415 -11657.609925     89.456775
P 26  23141.817326   5096.220887  12276.086990     15.961146
P 27  -4166.521561  24899.223725  -6958.903482     33.939295
P 28  -1250.738068  16933.464413  20573.479673     46.894825
P 29  24202.330224   8565.653914   7400.496019     50.598509
P 30  17243.479915 -17953.799218  -9349.015101     96.934331
P 31   4395.354182  17954.070449  18618.942266    -71.657557
*  2005  3 31  0 15  0.00000000
P  1 -20743.990416 -15801.857359   5294.900861    396.351030
P  2  13617.462332  13784.541869 -18513.885470    -26.560816
P  3 -24564.817874 -10483.060704    -31.088842     96.221242
P  4   6189.575964  24325.804877  -8144.273957    310.892350
P  5  22919.537145 -11950.712777   5542.365282     88.123528
P  6  11288.966608 -11610.415516 -20870.635620    290.982659
P  7   9216.761362  18308.645665  17388.349767   -130.234488
P  8   -818.959615  26326.114433  -1259.604427    -24.956421
P  9  14246.891196  -6876.534805  20798.521820    -36.357042
P 10  18581.798492   3561.787090 -18832.287401     61.163077
P 11 -15024.580729   7884.604288  20372.786147    209.452875
P 13  -9022.405655  11706.925289 -22126.571433     -7.286876
P 14  -9596.368007 -18008.956955  17066.160903    -30.819779
P 15  -2580.711942 -25732.755478   5067.039546    410.111488
P 16 -14504.940698  -7966.062317 -20704.757656      1.788212
P 18  13092.263605 -18461.482009  13748.162408   -140.894903
P 19 -23782.947849  -5788.201025  10385.563495    -17.314363
P 20 -23037.904265  13016.491323   2089.780406    -75.756095
P 21   6420.727759 -23979.261539  -8773.343415     96.151135
P 22   2561.358983 -17466.562856  20005.990075     19.147935
P 23 -18682.126239   4662.908596 -18438.198210    206.340881
P 24  -4498.712217  25438.151190   6051.373669      5.447322
P 25  -9563.919758 -22823.381090  -9183.409367     89.457539
P 26  24183.284198   5858.915211   9791.025562     15.962918
P 27  -4531.337811  23892.682420  -9599.811022     33.946149
P 28  -3265.771076  17945.164350  19420.977522     46.894574
P 29  24693.678751   9027.579819   4620.146953     50.577584
P 30  18152.966596 -18188.879323  -6726.476016     96.956775
P 31   2283.460899  17074.730053  19791.081278    -71.671829
*  2005  3 31  0 30  0.00000000
P  1 -20006.944459 -15615.828966   8058.410559    396.353519
P  2  13610.291676  15757.645995 -16851.344564    -26.560630
P  3 -24308.593100 -10734.675634  -2797.366630     96.223780
P  4   5945.908241  25122.566554  -5425.445626    310.871843
P  5  22484.361188 -11193.447469   8208.217146     88.126102
P  6  13437.520629 -10549.069316 -20165.598403    291.039635
P  7   7308.324153  17678.474304  18904.665468   -130.265095
P  8  -1090.104290  26042.503602  -4128.320045    -24.956506
P  9  14578.505879  -4382.074553  21259.060749    -36.357273
P 10  16778.427432   4833.398374 -20172.088710     61.163818
P 11 -15548.534716   5555.744511  20761.410003    209.456709
P 13 -11229.904249  10561.918108 -21680.392599     -7.285760
P 14  -7720.469165 -17213.743582  18758.492434    -30.819341
P 15  -2304.671366 -26175.601240   2231.326352    410.117091
P 16 -12526.082327  -9368.096907 -21390.890479      1.788244
P 18  14434.665523 -19025.598223  11404.904101   -140.898363
P 19 -24567.148013  -6493.300977   7792.577162    -17.315327
P 20 -22842.521149  12577.219340   4911.748336    -75.753979
P 21   6741.379704 -22823.689626 -11299.632411     96.152664
P 22   4493.171754 -18492.106692  18692.211990     19.148604
P 23 -20416.044524   3673.646792 -16746.413088    206.339285
P 24  -4751.459279  24623.772451   8755.198799      5.451246
P 25  -9436.099695 -23807.129657  -6548.148269     89.457061
P 26  25007.752896   6425.273875   7140.774484     15.965566
P 27  -4984.148886  22611.078300 -12067.487261     33.952620
P 28  -5104.505964  18981.047195  17937.410054     46.894675
P 29  24922.214896   9327.785486   1761.492994     50.556374
P 30  18805.623875 -18291.559814  -3988.229912     96.979355
P 31     28.634227  16250.736172  20610.018760    -71.686338
*  2005  3 31  0 45  0.00000000
P  1 -18983.848678 -15345.634800  10684.303571    396.353894
P  2  13679.208508  17529.778025 -14906.089361    -26.560297
P  3 -23773.090025 -10902.821558  -5516.361412     96.225473
P  4   5708.138979  25617.236064  -2611.330581    310.851394
P  5  21866.239136 -10219.234209  10730.593347     88.128359
P  6  15539.233032  -9627.985420 -19108.392012    291.096287
P  7   5230.135491  17092.990854  20107.631604   -130.295611
P  8  -1404.258371  25451.902543  -6924.625827    -24.957645
P  9  15038.066924  -1879.325254  21336.255776    -36.359750
P 10  14940.879206   6282.924509 -21169.396161     61.164585
P 11 -16176.388869   3230.391635  20791.438067    209.460139
P 13 -13433.535259   9571.181410 -20862.950337     -7.284365
P 14  -5643.449962 -16457.288439  20129.638109    -30.819190
P 15  -2035.642001 -26306.069131   -643.637290    410.122794
P 16 -10577.072236 -10906.086977 -21706.436626      1.788362
P 18  15519.503236 -19499.718124   8863.259429   -140.901770
P 19 -25116.001155  -7027.057074   5065.762908    -17.316204
P 20 -22421.770355  11934.202783   7648.927251    -75.751885
P 21   7140.833184 -21410.634749 -13626.668403     96.153953
P 22   6232.663699 -19523.975780  17060.900561     19.149668
P 23 -22008.696548   2856.233474 -14769.656488    206.337579
P 24  -5068.314119  23528.536588  11308.399579      5.454221
P 25  -9293.747776 -24494.875982  -3798.516247     89.457556
P 26  25582.931412   6819.404651   4370.695668     15.967981
P 27  -5552.594741  21083.812125 -14316.556261     33.959460
P 28  -6742.537717  20001.879213  16146.909901     46.894656
P 29  24864.632362   9498.077995  -1127.088757     50.535466
P 30  19211.728541 -18226.438479  -1181.173901     97.002181
P 31  -2329.451125  15509.713053  21061.478016    -71.700930
EOF
